NORAD_CAT_ID,OBJECT_NAME,OBJECT_TYPE,EPOCH,MEAN_MOTION,ECCENTRICITY,INCLINATION,RA_OF_ASC_NODE,ARG_OF_PERICENTER,MEAN_ANOMALY,BSTAR,MEAN_MOTION_DOT,MEAN_MOTION_DDOT,TLE_LINE0,TLE_LINE1,TLE_LINE2,SEMIMAJOR_AXIS,PERIOD,APOGEE,PERIGEE,DECAYED
55659.0,STARLINK-5477,PAYLOAD,2023-12-17 12:04:21,14.98322246,0.0002442,70.0014,54.9321,252.3734,107.7159,8.2138e-05,8.87e-06,0.0,0 STARLINK-5477,1 55659U 23021AH  23351.50302240  .00000887  00000-0  82138-4 0  9997,2 55659  70.0014  54.9321 0002442 252.3734 107.7159 14.98322246 47176,6950.217,96.107,573.779,570.385,0.0
55659.0,STARLINK-5477,PAYLOAD,2023-12-17 13:40:29,14.98323737,0.0002353,70.0018,54.765,252.1836,107.9067,9.4893e-05,1.039e-05,0.0,0 STARLINK-5477,1 55659U 23021AH  23351.56978191  .00001039  00000-0  94893-4 0  9998,2 55659  70.0018  54.7650 0002353 252.1836 107.9067 14.98323737 47485,6950.212,96.107,573.713,570.442,0.0
55659.0,STARLINK-5477,PAYLOAD,2023-12-18 12:06:19,14.98342505,0.000284,70.0,52.4057,270.3209,89.7624,0.00051135,6.016e-05,0.0,0 STARLINK-5477,1 55659U 23021AH  23352.50439469  .00006016  00000-0  51135-3 0  9994,2 55659  70.0000  52.4057 0002840 270.3209  89.7624 14.98342505 47322,6950.154,96.106,573.993,570.045,0.0
55659.0,STARLINK-5477,PAYLOAD,2023-12-18 13:42:27,14.98347829,0.0003226,69.9992,52.2369,276.6068,83.4724,0.00052354,6.162e-05,0.0,0 STARLINK-5477,1 55659U 23021AH  23352.57115075  .00006162  00000-0  52354-3 0  9991,2 55659  69.9992  52.2369 0003226 276.6068  83.4724 14.98347829 47634,6950.138,96.106,574.245,569.761,0.0
55659.0,STARLINK-5477,PAYLOAD,2023-12-19 12:08:22,14.98332996,0.0002949,69.9999,49.8818,264.4115,95.6708,-5.0322e-05,-6.93e-06,0.0,0 STARLINK-5477,1 55659U 23021AH  23353.50581286 -.00000693  00000-0 -50322-4 0  9995,2 55659  69.9999  49.8818 0002949 264.4115  95.6708 14.98332996 47479,6950.184,96.107,574.098,569.999,0.0
55659.0,STARLINK-5477,PAYLOAD,2023-12-19 13:44:30,14.98332426,0.0002978,69.9996,49.7124,267.4674,92.6144,-6.4459e-05,-8.62e-06,0.0,0 STARLINK-5477,1 55659U 23021AH  23353.57257332 -.00000862  00000-0 -64459-4 0  9998,2 55659  69.9996  49.7124 0002978 267.4674  92.6144 14.98332426 47783,6950.185,96.107,574.12,569.981,0.0
55659.0,STARLINK-5477,PAYLOAD,2023-12-20 10:34:14,14.98342239,0.0002744,70.0003,47.5255,258.5561,101.529,-0.00018057,-2.247e-05,0.0,0 STARLINK-5477,1 55659U 23021AH  23354.44044558 -.00002247  00000-0 -18057-3 0  9990,2 55659  70.0003  47.5255 0002744 258.5561 101.5290 14.98342239 47610,6950.155,96.106,573.927,570.113,0.0
55659.0,STARLINK-5477,PAYLOAD,2023-12-20 13:46:30,14.98343984,0.0002823,70.0,47.1882,261.1565,98.9275,-0.00017413,-2.171e-05,0.0,0 STARLINK-5477,1 55659U 23021AH  23354.57396339 -.00002171  00000-0 -17413-3 0  9992,2 55659  70.0000  47.1882 0002823 261.1565  98.9275 14.98343984 47936,6950.15,96.106,573.977,570.053,0.0
55659.0,STARLINK-5477,PAYLOAD,2023-12-21 12:12:22,14.98339263,0.0002788,69.9998,44.8295,267.954,92.13,0.00025045,2.897e-05,0.0,0 STARLINK-5477,1 55659U 23021AH  23355.50859300  .00002897  00000-0  25045-3 0  9991,2 55659  69.9998  44.8295 0002788 267.9540  92.1300 14.98339263 47770,6950.164,96.106,573.967,570.092,0.0
55659.0,STARLINK-5477,PAYLOAD,2023-12-21 13:48:30,14.98341343,0.0002852,69.9998,44.6627,262.5356,97.5479,0.00023156,2.672e-05,0.0,0 STARLINK-5477,1 55659U 23021AH  23355.57535108  .00002672  00000-0  23156-3 0  9997,2 55659  69.9998  44.6627 0002852 262.5356  97.5479 14.98341343 48088,6950.158,96.106,574.005,570.041,0.0
55659.0,STARLINK-5477,PAYLOAD,2023-12-22 04:13:43,14.98328382,0.0002116,70.0029,43.1498,224.6745,135.4244,0.00011019,1.222e-05,0.0,0 STARLINK-5477,1 55659U 23021AH  23356.17620146  .00001222  00000-0  11019-3 0  9996,2 55659  70.0029  43.1498 0002116 224.6745 135.4244 14.98328382 47876,6950.198,96.107,573.534,570.592,0.0
55659.0,STARLINK-5477,PAYLOAD,2023-12-22 13:50:32,14.98327248,0.0002824,69.9998,42.1386,259.7622,100.3219,-9.1505e-06,-2.02e-06,0.0,0 STARLINK-5477,1 55659U 23021AH  23356.57676623 -.00000202  00000-0 -91505-5 0  9990,2 55659  69.9998  42.1386 0002824 259.7622 100.3219 14.98327248 48236,6950.201,96.107,574.029,570.104,0.0
55659.0,STARLINK-5477,PAYLOAD,2023-12-23 04:15:45,14.98332954,0.0002892,69.9996,40.6233,261.151,98.9322,-9.2111e-05,-1.192e-05,0.0,0 STARLINK-5477,1 55659U 23021AH  23357.17760425 -.00001192  00000-0 -92111-4 0  9993,2 55659  69.9996  40.6233 0002892 261.1510  98.9322 14.98332954 48020,6950.184,96.107,574.059,570.039,0.0
55659.0,STARLINK-5477,PAYLOAD,2023-12-23 13:52:32,14.9833752,0.0002771,69.9998,39.6121,257.8455,102.2394,-6.8388e-06,-1.75e-06,0.0,0 STARLINK-5477,1 55659U 23021AH  23357.57815863 -.00000175  00000-0 -68388-5 0  9994,2 55659  69.9998  39.6121 0002771 257.8455 102.2394 14.98337520 48383,6950.17,96.107,573.961,570.109,0.0
55659.0,STARLINK-5477,PAYLOAD,2023-12-24 04:17:45,14.98328251,0.0002671,70.0,38.0968,254.5696,105.5168,0.00015991,1.815e-05,0.0,0 STARLINK-5477,1 55659U 23021AH  23358.17900082  .00001815  00000-0  15991-3 0  9999,2 55659  70.0000  38.0968 0002671 254.5696 105.5168 14.98328251 48175,6950.198,96.107,573.92,570.207,0.0
55659.0,STARLINK-5477,PAYLOAD,2023-12-24 12:18:25,14.98331173,0.0002654,70.0001,37.2553,254.2967,105.7899,0.00018941,2.168e-05,0.0,0 STARLINK-5477,1 55659U 23021AH  23358.51279975  .00002168  00000-0  18941-3 0  9997,2 55659  70.0001  37.2553 0002654 254.2967 105.7899 14.98331173 48525,6950.189,96.107,573.899,570.21,0.0
55659.0,STARLINK-5477,PAYLOAD,2023-12-25 04:19:46,14.98330819,0.0002532,70.0004,35.5722,254.288,105.8,9.1111e-05,9.94e-06,0.0,0 STARLINK-5477,1 55659U 23021AH  23359.18040251  .00000994  00000-0  91111-4 0  9990,2 55659  70.0004  35.5722 0002532 254.2880 105.8000 14.98330819 48325,6950.19,96.107,573.815,570.296,0.0
55659.0,STARLINK-5477,PAYLOAD,2023-12-25 12:20:27,14.98328784,0.0002566,70.0004,34.7307,255.6622,104.4253,5.0065e-05,5.04e-06,0.0,0 STARLINK-5477,1 55659U 23021AH  23359.51420469  .00000504  00000-0  50065-4 0  9990,2 55659  70.0004  34.7307 0002566 255.6622 104.4253 14.98328784 48672,6950.197,96.107,573.845,570.278,0.0
55659.0,STARLINK-5477,PAYLOAD,2023-12-26 10:46:20,14.98331315,0.000262,70.0003,32.3744,258.4591,101.6274,2.0332e-05,1.5e-06,0.0,0 STARLINK-5477,1 55659U 23021AH  23360.44884314  .00000150  00000-0  20332-4 0  9998,2 55659  70.0003  32.3744 0002620 258.4591 101.6274 14.98331315 48516,6950.189,96.107,573.875,570.233,0.0
55659.0,STARLINK-5477,PAYLOAD,2023-12-26 12:22:28,14.98331732,0.0002621,70.0002,32.2057,259.0256,101.0608,2.2898e-05,1.8e-06,0.0,0 STARLINK-5477,1 55659U 23021AH  23360.51560261  .00000180  00000-0  22898-4 0  9990,2 55659  70.0002  32.2057 0002621 259.0256 101.0608 14.98331732 48829,6950.188,96.107,573.874,570.231,0.0
55659.0,STARLINK-5477,PAYLOAD,2023-12-27 10:48:20,14.983359,0.0002729,70.0,29.8491,259.1929,100.8922,3.8799e-07,-8.8e-07,0.0,0 STARLINK-5477,1 55659U 23021AH  23361.45023942 -.00000088  00000-0  38799-6 0  9991,2 55659  70.0000  29.8491 0002729 259.1929 100.8922 14.98335900 48667,6950.175,96.107,573.936,570.143,0.0
55659.0,STARLINK-5477,PAYLOAD,2023-12-27 12:24:28,14.98335798,0.0002722,69.9999,29.6806,259.7902,100.295,6.2414e-07,-8.6e-07,0.0,0 STARLINK-5477,1 55659U 23021AH  23361.51699946 -.00000086  00000-0  62414-6 0  9990,2 55659  69.9999  29.6806 0002722 259.7902 100.2950 14.98335798 48973,6950.175,96.107,573.932,570.148,0.0
55659.0,STARLINK-5477,PAYLOAD,2023-12-28 10:50:21,14.98338384,0.0002538,69.9999,27.3229,263.3845,96.7025,-9.1316e-05,-1.183e-05,0.0,0 STARLINK-5477,1 55659U 23021AH  23362.45164025 -.00001183  00000-0 -91316-4 0  9990,2 55659  69.9999  27.3229 0002538 263.3845  96.7025 14.98338384 48818,6950.167,96.106,573.796,570.268,0.0
55659.0,STARLINK-5477,PAYLOAD,2023-12-29 02:51:42,14.98317247,0.0002693,69.9998,25.6396,260.9251,99.1603,0.00025138,2.907e-05,0.0,0 STARLINK-5477,1 55659U 23021AH  23363.11924254  .00002907  00000-0  25138-3 0  9993,2 55659  69.9998  25.6396 0002693 260.9251  99.1603 14.98317247 48914,6950.232,96.108,573.969,570.226,0.0
55659.0,STARLINK-5477,PAYLOAD,2023-12-29 10:52:22,14.98328905,0.0002671,69.9998,24.7989,261.393,98.6926,3.2599e-05,2.96e-06,0.0,0 STARLINK-5477,1 55659U 23021AH  23363.45304312  .00000296  00000-0  32599-4 0  9996,2 55659  69.9998  24.7989 0002671 261.3930  98.6926 14.98328905 49261,6950.196,96.107,573.918,570.205,0.0
55659.0,STARLINK-5477,PAYLOAD,2023-12-30 04:29:51,14.98329827,0.0002715,70.0004,22.9475,263.5193,96.5657,7.564e-05,8.1e-06,0.0,0 STARLINK-5477,1 55659U 23021AH  23364.18740009  .00000810  00000-0  75640-4 0  9990,2 55659  70.0004  22.9475 0002715 263.5193  96.5657 14.98329827 49077,6950.193,96.107,573.945,570.171,0.0
55659.0,STARLINK-5477,PAYLOAD,2023-12-30 10:54:21,14.9837262,0.0002592,70.0011,22.2751,277.2361,82.8503,7.5772e-05,8.12e-06,0.0,0 STARLINK-5477,1 55659U 23021AH  23364.45441426  .00000812  00000-0  75772-4 0  9999,2 55659  70.0011  22.2751 0002592 277.2361  82.8503 14.98372620 49119,6950.061,96.104,573.728,570.125,0.0
55659.0,STARLINK-5477,PAYLOAD,2023-12-31 02:55:44,14.98325605,0.0003012,70.0002,20.5912,269.6533,90.4281,3.5651e-05,3.32e-06,0.0,0 STARLINK-5477,1 55659U 23021AH  23365.12204321  .00000332  00000-0  35651-4 0  9994,2 55659  70.0002  20.5912 0003012 269.6533  90.4281 14.98325605 49213,6950.206,96.107,574.165,569.978,0.0
55659.0,STARLINK-5477,PAYLOAD,2023-12-31 10:56:24,14.98327909,0.0002948,69.9994,19.748,267.7652,92.317,4.0356e-05,3.89e-06,0.0,0 STARLINK-5477,1 55659U 23021AH  23365.45584239  .00000389  00000-0  40356-4 0  9999,2 55659  69.9994  19.7480 0002948 267.7652  92.3170 14.98327909 49563,6950.199,96.107,574.113,570.015,0.0
55659.0,STARLINK-5477,PAYLOAD,2024-01-01 02:57:45,14.98331581,0.0002998,69.9993,18.0644,267.164,92.9175,1.5778e-06,-7.4e-07,0.0,0 STARLINK-5477,1 55659U 23021AH  24001.12344061 -.00000074  00000-0  15778-5 0  9991,2 55659  69.9993  18.0644 0002998 267.1640  92.9175 14.98331581 49362,6950.188,96.107,574.137,569.969,0.0
